STARLINK-36933          
1 69196U 26114Q   26157.83335647  .00020778  00000+0  10865-3 0  9991
2 69196  53.1587 254.0313 0000644 100.5425 335.7996 15.80854313  3149
STARLINK-37419          
1 69197U 26114R   26157.83335647 -.00032762  00000+0 -16311-3 0  9992
2 69197  53.1587 254.0135 0001153  74.4804  10.4042 15.80868371  3146
STARLINK-37321          
1 69198U 26114S   26157.83335647  .00022633  00000+0  11793-3 0  9996
2 69198  53.1588 254.0052 0001429  73.4560  15.7071 15.80869007  3147
STARLINK-37406          
1 69199U 26114T   26157.83335647 -.00008205  00000+0 -38070-4 0  9996
2 69199  53.1587 253.9960 0000976  62.0995  31.3178 15.80872850  3147
STARLINK-37761          
1 69200U 26114U   26157.83335647  .00024913  00000+0  12955-3 0  9994
2 69200  53.1586 253.9867 0001139  70.0541  27.6499 15.80845775  3143
STARLINK-37754          
1 69201U 26114V   26157.83335647  .00030520  00000+0  15779-3 0  9993
2 69201  53.1587 253.9759 0000748  76.4337  26.6400 15.80849489  3140
STARLINK-37649          
1 69202U 26114W   26157.83335647  .00047239  00000+0  24194-3 0  9990
2 69202  53.1588 253.9696 0000797  86.9011  19.3462 15.80839129  3148
STARLINK-37604          
1 69203U 26114X   26157.83335647  .00073616  00000+0  37411-3 0  9995
2 69203  53.1588 253.9608 0000559  82.6275  27.8972 15.80827966  3149
STARLINK-37669          
1 69204U 26114Y   26157.83335647  .00038888  00000+0  19997-3 0  9997
2 69204  53.1588 253.9518 0001049  81.3830  33.4064 15.80840980  3144
STARLINK-37691          
1 69205U 26114Z   26157.83335647  .00003264  00000+0  20087-4 0  9991
2 69205  53.1588 253.9247 0000912  87.1793  40.4246 15.80854492  3147
STARLINK-37671          
1 69206U 26114AA  26157.83335647  .00014764  00000+0  78252-4 0  9996
2 69206  53.1588 253.9338 0001009  75.1835  48.1416 15.80861703  3148
STARLINK-37647          
1 69207U 26114AB  26157.83335647  .00046215  00000+0  23681-3 0  9998
2 69207  53.1589 253.9428 0000967  97.4366  21.6273 15.80838319  3142
STARLINK-37562          
1 69208U 26114AC  26157.83335647  .00040785  00000+0  20939-3 0  9998
2 69208  53.1588 253.9159 0001079  64.3736  67.4935 15.80852922  3141
STARLINK-37682          
1 69209U 26114AD  26157.83335647  .00043883  00000+0  22503-3 0  9990
2 69209  53.1587 253.9069 0000736  78.4466  57.6962 15.80844989  3141
STARLINK-37402          
1 69210U 26114AE  26157.83335647  .00022261  00000+0  11618-3 0  9994
2 69210  53.1587 253.8983 0001088  90.1806  50.2407 15.80845972  3143
STARLINK-37613          
1 69211U 26115A   26157.83335647 -.01053161  00000+0 -71866-2 0  9992
2 69211  97.2846 174.7192 0001105  85.3913 162.2659 15.77151515  3039
STARLINK-37713          
1 69212U 26115B   26157.83335647  .00021367  00000+0  11206-3 0  9996
2 69212  97.2844 174.7210 0001225  86.4137 166.4230 15.80807234  3033
STARLINK-37716          
1 69213U 26115C   26157.83335647  .00125549  00000+0  65056-3 0  9996
2 69213  97.2843 174.7196 0001725  93.7462 154.9396 15.80688561  3038
STARLINK-37620          
1 69214U 26115D   26157.83335647 -.02517510  00000+0 -19595-1 0  9999
2 69214  97.2846 174.7182 0001749  94.3608 152.9670 15.75380697  3038
STARLINK-37700          
1 69215U 26115E   26157.83335647 -.02480439  00000+0 -28855-1 0  9998
2 69215  97.2852 174.6891 0001668  84.9816  94.1667 15.65114151  3030
STARLINK-37766          
1 69216U 26115F   26157.83335647  .00013679  00000+0  72087-4 0  9992
2 69216  97.2841 174.7256 0001024  86.4848 179.1767 15.80802120  3035
STARLINK-37763          
1 69217U 26115G   26157.83335647  .00021067  00000+0  11057-3 0  9992
2 69217  97.2839 174.7272 0001208  93.5793 175.6918 15.80793092  3039
STARLINK-37724          
1 69218U 26115H   26157.83335647  .00036845  00000+0  19250-3 0  9996
2 69218  97.2843 174.7294 0001337 103.9193 170.1086 15.80790961  3030
STARLINK-37758          
1 69219U 26115J   26157.83335647  .00022830  00000+0  11971-3 0  9998
2 69219  97.2837 174.7372 0000948  94.0200 198.2531 15.80799685  3035
STARLINK-37201          
1 69220U 26115K   26157.83335647  .00020010  00000+0  10504-3 0  9999
2 69220  97.2846 174.7341 0001058  90.2159 195.0344 15.80800486  3036
STARLINK-37728          
1 69221U 26115L   26157.83335647  .00019980  00000+0  10486-3 0  9993
2 69221  97.2843 174.7409 0001275  93.4011 205.6029 15.80805300  3030
STARLINK-37760          
1 69222U 26115M   26157.83335647  .00029445  00000+0  15413-3 0  9996
2 69222  97.2843 174.7338 0001274  98.1032 185.3157 15.80789615  3032
STARLINK-37759          
1 69223U 26115N   26157.83335647  .00050016  00000+0  26063-3 0  9998
2 69223  97.2838 174.7421 0001214 108.8945 194.1909 15.80793572  3036
STARLINK-37725          
1 69224U 26115P   26157.83335647  .00016732  00000+0  87993-4 0  9996
2 69224  97.2843 174.7406 0001076  90.0406 209.8164 15.80798550  3034
STARLINK-37770          
1 69225U 26115Q   26157.83335647  .00138434  00000+0  71572-3 0  9996
2 69225  97.2844 174.7391 0001597  95.5752 200.9288 15.80703008  3034
