OBJECT_NAME,OBJECT_ID,EPOCH,MEAN_MOTION,ECCENTRICITY,INCLINATION,RA_OF_ASC_NODE,ARG_OF_PERICENTER,MEAN_ANOMALY,EPHEMERIS_TYPE,CLASSIFICATION_TYPE,NORAD_CAT_ID,ELEMENT_SET_NO,REV_AT_EPOCH,BSTAR,MEAN_MOTION_DOT,MEAN_MOTION_DDOT
STARLINK-36933,2026-114Q,2026-06-06T20:00:01.999008,15.80854313,.0000644,53.1587,254.0313,100.5425,335.7996,0,U,69196,999,314,.10865E-3,.20778E-3,0
STARLINK-37419,2026-114R,2026-06-06T20:00:01.999008,15.80868371,.0001153,53.1587,254.0135,74.4804,10.4042,0,U,69197,999,314,-.16311E-3,-.32762E-3,0
STARLINK-37321,2026-114S,2026-06-06T20:00:01.999008,15.80869007,.0001429,53.1588,254.0052,73.4560,15.7071,0,U,69198,999,314,.11793E-3,.22633E-3,0
STARLINK-37406,2026-114T,2026-06-06T20:00:01.999008,15.80872850,.0000976,53.1587,253.9960,62.0995,31.3178,0,U,69199,999,314,-.3807E-4,-.8205E-4,0
STARLINK-37761,2026-114U,2026-06-06T20:00:01.999008,15.80845775,.0001139,53.1586,253.9867,70.0541,27.6499,0,U,69200,999,314,.12955E-3,.24913E-3,0
STARLINK-37754,2026-114V,2026-06-06T20:00:01.999008,15.80849489,.0000748,53.1587,253.9759,76.4337,26.6400,0,U,69201,999,314,.15779E-3,.3052E-3,0
STARLINK-37649,2026-114W,2026-06-06T20:00:01.999008,15.80839129,.0000797,53.1588,253.9696,86.9011,19.3462,0,U,69202,999,314,.24194E-3,.47239E-3,0
STARLINK-37604,2026-114X,2026-06-06T20:00:01.999008,15.80827966,.0000559,53.1588,253.9608,82.6275,27.8972,0,U,69203,999,314,.37411E-3,.73616E-3,0
STARLINK-37669,2026-114Y,2026-06-06T20:00:01.999008,15.80840980,.0001049,53.1588,253.9518,81.3830,33.4064,0,U,69204,999,314,.19997E-3,.38888E-3,0
STARLINK-37691,2026-114Z,2026-06-06T20:00:01.999008,15.80854492,.0000912,53.1588,253.9247,87.1793,40.4246,0,U,69205,999,314,.20087E-4,.3264E-4,0
STARLINK-37671,2026-114AA,2026-06-06T20:00:01.999008,15.80861703,.0001009,53.1588,253.9338,75.1835,48.1416,0,U,69206,999,314,.78252E-4,.14764E-3,0
STARLINK-37647,2026-114AB,2026-06-06T20:00:01.999008,15.80838319,.0000967,53.1589,253.9428,97.4366,21.6273,0,U,69207,999,314,.23681E-3,.46215E-3,0
STARLINK-37562,2026-114AC,2026-06-06T20:00:01.999008,15.80852922,.0001079,53.1588,253.9159,64.3736,67.4935,0,U,69208,999,314,.20939E-3,.40785E-3,0
STARLINK-37682,2026-114AD,2026-06-06T20:00:01.999008,15.80844989,.0000736,53.1587,253.9069,78.4466,57.6962,0,U,69209,999,314,.22503E-3,.43883E-3,0
STARLINK-37402,2026-114AE,2026-06-06T20:00:01.999008,15.80845972,.0001088,53.1587,253.8983,90.1806,50.2407,0,U,69210,999,314,.11618E-3,.22261E-3,0
STARLINK-37613,2026-115A,2026-06-06T20:00:01.999008,15.77151515,.0001105,97.2846,174.7192,85.3913,162.2659,0,U,69211,999,303,-.71866E-2,-.1053161E-1,0
STARLINK-37713,2026-115B,2026-06-06T20:00:01.999008,15.80807234,.0001225,97.2844,174.7210,86.4137,166.4230,0,U,69212,999,303,.11206E-3,.21367E-3,0
STARLINK-37716,2026-115C,2026-06-06T20:00:01.999008,15.80688561,.0001725,97.2843,174.7196,93.7462,154.9396,0,U,69213,999,303,.65056E-3,.125549E-2,0
STARLINK-37620,2026-115D,2026-06-06T20:00:01.999008,15.75380697,.0001749,97.2846,174.7182,94.3608,152.9670,0,U,69214,999,303,-.19595E-1,-.251751E-1,0
STARLINK-37700,2026-115E,2026-06-06T20:00:01.999008,15.65114151,.0001668,97.2852,174.6891,84.9816,94.1667,0,U,69215,999,303,-.28855E-1,-.2480439E-1,0
STARLINK-37766,2026-115F,2026-06-06T20:00:01.999008,15.80802120,.0001024,97.2841,174.7256,86.4848,179.1767,0,U,69216,999,303,.72087E-4,.13679E-3,0
STARLINK-37763,2026-115G,2026-06-06T20:00:01.999008,15.80793092,.0001208,97.2839,174.7272,93.5793,175.6918,0,U,69217,999,303,.11057E-3,.21067E-3,0
STARLINK-37724,2026-115H,2026-06-06T20:00:01.999008,15.80790961,.0001337,97.2843,174.7294,103.9193,170.1086,0,U,69218,999,303,.1925E-3,.36845E-3,0
STARLINK-37758,2026-115J,2026-06-06T20:00:01.999008,15.80799685,.0000948,97.2837,174.7372,94.0200,198.2531,0,U,69219,999,303,.11971E-3,.2283E-3,0
STARLINK-37201,2026-115K,2026-06-06T20:00:01.999008,15.80800486,.0001058,97.2846,174.7341,90.2159,195.0344,0,U,69220,999,303,.10504E-3,.2001E-3,0
STARLINK-37728,2026-115L,2026-06-06T20:00:01.999008,15.80805300,.0001275,97.2843,174.7409,93.4011,205.6029,0,U,69221,999,303,.10486E-3,.1998E-3,0
STARLINK-37760,2026-115M,2026-06-06T20:00:01.999008,15.80789615,.0001274,97.2843,174.7338,98.1032,185.3157,0,U,69222,999,303,.15413E-3,.29445E-3,0
STARLINK-37759,2026-115N,2026-06-06T20:00:01.999008,15.80793572,.0001214,97.2838,174.7421,108.8945,194.1909,0,U,69223,999,303,.26063E-3,.50016E-3,0
STARLINK-37725,2026-115P,2026-06-06T20:00:01.999008,15.80798550,.0001076,97.2843,174.7406,90.0406,209.8164,0,U,69224,999,303,.87993E-4,.16732E-3,0
STARLINK-37770,2026-115Q,2026-06-06T20:00:01.999008,15.80703008,.0001597,97.2844,174.7391,95.5752,200.9288,0,U,69225,999,303,.71572E-3,.138434E-2,0
